start=new Date('2023-04-04T00:00:00.000Z').valueOf();
sats=[{"SITE":"AFETR","MEAN_MOTION_DDOT":"0.0000000000000","REF_FRAME":"TEME","ELEMENT_SET_NO":"999","PERIAPSIS":"554.646","CENTER_NAME":"EARTH","SEMIMAJOR_AXIS":"6933.561","TLE_LINE2":"2 55480  42.9994  33.9785 0001125 258.1148 329.2426 15.03724550  1308","OBJECT_TYPE":"PAYLOAD","ECCENTRICITY":"0.00011250","INCLINATION":"42.9994","REV_AT_EPOCH":"130","TIME_SYSTEM":"UTC","BSTAR":"-0.07292000000000","COUNTRY_CODE":"US","OBJECT_NAME":"STARLINK-5690","TLE_LINE1":"1 55480U 23015AH  23093.91667824 -.00948493  00000-0 -72920-1 0  9993","LAUNCH_DATE":"2023-02-02","MEAN_ANOMALY":"329.2426","OBJECT_ID":"2023-015AH","RA_OF_ASC_NODE":"33.9785","MEAN_ELEMENT_THEORY":"SGP4","DECAY_DATE":null,"APOAPSIS":"556.206","EPHEMERIS_TYPE":"0","MEAN_MOTION":"15.03724550","CLASSIFICATION_TYPE":"U","PERIOD":"95.762","EPOCH":"2023-04-03T22:00:00.999936","MEAN_MOTION_DOT":"-0.00948493","GP_ID":"229427862","ARG_OF_PERICENTER":"258.1148","FILE":"3879321","RCS_SIZE":"LARGE","NORAD_CAT_ID":"55480"},{"APOAPSIS":"554.247","EPHEMERIS_TYPE":"0","MEAN_MOTION":"15.04496703","DECAY_DATE":null,"PERIOD":"95.713","CLASSIFICATION_TYPE":"U","LAUNCH_DATE":"2023-02-02","MEAN_ANOMALY":"103.4151","OBJECT_NAME":"STARLINK-5694","TLE_LINE1":"1 55481U 23015AJ  23093.87997734  .00012349  00000-0  88062-3 0  9991","MEAN_ELEMENT_THEORY":"SGP4","OBJECT_ID":"2023-015AJ","RA_OF_ASC_NODE":"37.6977","NORAD_CAT_ID":"55481","GP_ID":"229426616","ARG_OF_PERICENTER":"256.6500","FILE":"3879321","EPOCH":"2023-04-03T21:07:10.042176","MEAN_MOTION_DOT":"0.00012349","RCS_SIZE":"LARGE","TLE_LINE2":"2 55481  43.0017  37.6977 0001723 256.6500 103.4151 15.04496703  9526","OBJECT_TYPE":"PAYLOAD","SEMIMAJOR_AXIS":"6931.188","CENTER_NAME":"EARTH","REF_FRAME":"TEME","SITE":"AFETR","MEAN_MOTION_DDOT":"0.0000000000000","PERIAPSIS":"551.859","ELEMENT_SET_NO":"999","BSTAR":"0.00088062000000","TIME_SYSTEM":"UTC","COUNTRY_CODE":"US","ECCENTRICITY":"0.00017230","REV_AT_EPOCH":"952","INCLINATION":"43.0017"},{"TIME_SYSTEM":"UTC","BSTAR":"0.00100950000000","COUNTRY_CODE":"US","ECCENTRICITY":"0.00017070","INCLINATION":"43.0013","REV_AT_EPOCH":"944","CENTER_NAME":"EARTH","OBJECT_TYPE":"PAYLOAD","TLE_LINE2":"2 55482  43.0013  40.4476 0001707 266.2337  93.8311 15.04509389  9442","SEMIMAJOR_AXIS":"6931.149","SITE":"AFETR","MEAN_MOTION_DDOT":"0.0000000000000","REF_FRAME":"TEME","ELEMENT_SET_NO":"999","PERIAPSIS":"551.831","NORAD_CAT_ID":"55482","EPOCH":"2023-04-03T07:55:02.766432","MEAN_MOTION_DOT":"0.00014195","GP_ID":"229394488","ARG_OF_PERICENTER":"266.2337","FILE":"3879059","RCS_SIZE":"LARGE","DECAY_DATE":null,"APOAPSIS":"554.197","MEAN_MOTION":"15.04509389","EPHEMERIS_TYPE":"0","PERIOD":"95.712","CLASSIFICATION_TYPE":"U","OBJECT_NAME":"STARLINK-5693","TLE_LINE1":"1 55482U 23015AK  23093.32989313  .00014195  00000-0  10095-2 0  9997","MEAN_ANOMALY":"93.8311","LAUNCH_DATE":"2023-02-02","OBJECT_ID":"2023-015AK","RA_OF_ASC_NODE":"40.4476","MEAN_ELEMENT_THEORY":"SGP4"},{"PERIAPSIS":"551.975","ELEMENT_SET_NO":"999","REF_FRAME":"TEME","SITE":"AFETR","MEAN_MOTION_DDOT":"0.0000000000000","OBJECT_TYPE":"PAYLOAD","TLE_LINE2":"2 55483  43.0018  37.6000 0001597 247.5299 112.5375 15.04487394  9524","SEMIMAJOR_AXIS":"6931.217","CENTER_NAME":"EARTH","REV_AT_EPOCH":"952","INCLINATION":"43.0018","ECCENTRICITY":"0.00015970","COUNTRY_CODE":"US","BSTAR":"-0.00002016000000","TIME_SYSTEM":"UTC","MEAN_ELEMENT_THEORY":"SGP4","OBJECT_ID":"2023-015AL","RA_OF_ASC_NODE":"37.6000","LAUNCH_DATE":"2023-02-02","MEAN_ANOMALY":"112.5375","OBJECT_NAME":"STARLINK-5692","TLE_LINE1":"1 55483U 23015AL  23093.86719692 -.00000494  00000-0 -20160-4 0  9993","CLASSIFICATION_TYPE":"U","PERIOD":"95.714","APOAPSIS":"554.189","MEAN_MOTION":"15.04487394","EPHEMERIS_TYPE":"0","DECAY_DATE":null,"RCS_SIZE":"LARGE","GP_ID":"229427618","FILE":"3879321","ARG_OF_PERICENTER":"247.5299","EPOCH":"2023-04-03T20:48:45.813888","MEAN_MOTION_DOT":"-0.00000494","NORAD_CAT_ID":"55483"},{"MEAN_ELEMENT_THEORY":"SGP4","OBJECT_ID":"2023-015AM","RA_OF_ASC_NODE":"37.5651","MEAN_ANOMALY":"94.0856","LAUNCH_DATE":"2023-02-02","OBJECT_NAME":"STARLINK-5696","TLE_LINE1":"1 55484U 23015AM  23093.86250990  .00002069  00000-0  15996-3 0  9993","CLASSIFICATION_TYPE":"U","PERIOD":"95.715","APOAPSIS":"553.912","MEAN_MOTION":"15.04471395","EPHEMERIS_TYPE":"0","DECAY_DATE":null,"RCS_SIZE":"LARGE","GP_ID":"229427362","ARG_OF_PERICENTER":"265.9858","FILE":"3879321","EPOCH":"2023-04-03T20:42:00.855360","MEAN_MOTION_DOT":"0.00002069","NORAD_CAT_ID":"55484","PERIAPSIS":"552.350","ELEMENT_SET_NO":"999","REF_FRAME":"TEME","SITE":"AFETR","MEAN_MOTION_DDOT":"0.0000000000000","TLE_LINE2":"2 55484  43.0013  37.5651 0001127 265.9858  94.0856 15.04471395  9527","SEMIMAJOR_AXIS":"6931.266","OBJECT_TYPE":"PAYLOAD","CENTER_NAME":"EARTH","REV_AT_EPOCH":"952","INCLINATION":"43.0013","ECCENTRICITY":"0.00011270","COUNTRY_CODE":"US","BSTAR":"0.00015996000000","TIME_SYSTEM":"UTC"},{"MEAN_ANOMALY":"89.6308","LAUNCH_DATE":"2023-02-02","OBJECT_NAME":"STARLINK-5695","TLE_LINE1":"1 55485U 23015AN  23093.33759540  .00028989  00000-0  20413-2 0  9999","MEAN_ELEMENT_THEORY":"SGP4","OBJECT_ID":"2023-015AN","RA_OF_ASC_NODE":"40.5073","APOAPSIS":"554.169","EPHEMERIS_TYPE":"0","MEAN_MOTION":"15.04524428","DECAY_DATE":null,"CLASSIFICATION_TYPE":"U","PERIOD":"95.711","GP_ID":"229397490","FILE":"3879159","ARG_OF_PERICENTER":"270.4337","EPOCH":"2023-04-03T08:06:08.242560","MEAN_MOTION_DOT":"0.00028989","RCS_SIZE":"LARGE","NORAD_CAT_ID":"55485","REF_FRAME":"TEME","SITE":"AFETR","MEAN_MOTION_DDOT":"0.0000000000000","PERIAPSIS":"551.767","ELEMENT_SET_NO":"999","TLE_LINE2":"2 55485  43.0016  40.5073 0001733 270.4337  89.6308 15.04524428  9268","SEMIMAJOR_AXIS":"6931.103","OBJECT_TYPE":"PAYLOAD","CENTER_NAME":"EARTH","ECCENTRICITY":"0.00017330","REV_AT_EPOCH":"926","INCLINATION":"43.0016","BSTAR":"0.00204130000000","TIME_SYSTEM":"UTC","COUNTRY_CODE":"US"},{"LAUNCH_DATE":"2023-02-02","MEAN_ANOMALY":"117.8286","OBJECT_NAME":"STARLINK-5704","TLE_LINE1":"1 55486U 23015AP  23093.91667824 -.00015116  00000-0 -11294-2 0  9994","MEAN_ELEMENT_THEORY":"SGP4","OBJECT_ID":"2023-015AP","RA_OF_ASC_NODE":"35.3517","APOAPSIS":"562.529","MEAN_MOTION":"15.01758677","EPHEMERIS_TYPE":"0","DECAY_DATE":null,"PERIOD":"95.888","CLASSIFICATION_TYPE":"U","GP_ID":"229426867","FILE":"3879321","ARG_OF_PERICENTER":"257.4252","EPOCH":"2023-04-03T22:00:00.999936","MEAN_MOTION_DOT":"-0.00015116","RCS_SIZE":"LARGE","NORAD_CAT_ID":"55486","REF_FRAME":"TEME","SITE":"AFETR","MEAN_MOTION_DDOT":"0.0000000000000","PERIAPSIS":"560.421","ELEMENT_SET_NO":"999","TLE_LINE2":"2 55486  43.0005  35.3517 0001519 257.4252 117.8286 15.01758677  1303","OBJECT_TYPE":"PAYLOAD","SEMIMAJOR_AXIS":"6939.610","CENTER_NAME":"EARTH","ECCENTRICITY":"0.00015190","REV_AT_EPOCH":"130","INCLINATION":"43.0005","BSTAR":"-0.00112940000000","TIME_SYSTEM":"UTC","COUNTRY_CODE":"US"},{"COUNTRY_CODE":"US","TIME_SYSTEM":"UTC","BSTAR":"0.00084248000000","INCLINATION":"43.0019","REV_AT_EPOCH":"952","ECCENTRICITY":"0.00020760","CENTER_NAME":"EARTH","SEMIMAJOR_AXIS":"6931.207","TLE_LINE2":"2 55487  43.0019  37.6577 0002076 253.8541 106.2074 15.04490431  9523","OBJECT_TYPE":"PAYLOAD","ELEMENT_SET_NO":"999","PERIAPSIS":"551.633","SITE":"AFETR","MEAN_MOTION_DDOT":"0.0000000000000","REF_FRAME":"TEME","NORAD_CAT_ID":"55487","RCS_SIZE":"LARGE","EPOCH":"2023-04-03T20:59:30.682752","MEAN_MOTION_DOT":"0.00011802","GP_ID":"229427118","ARG_OF_PERICENTER":"253.8541","FILE":"3879321","CLASSIFICATION_TYPE":"U","PERIOD":"95.713","DECAY_DATE":null,"APOAPSIS":"554.511","EPHEMERIS_TYPE":"0","MEAN_MOTION":"15.04490431","OBJECT_ID":"2023-015AQ","RA_OF_ASC_NODE":"37.6577","MEAN_ELEMENT_THEORY":"SGP4","OBJECT_NAME":"STARLINK-5701","TLE_LINE1":"1 55487U 23015AQ  23093.87466068  .00011802  00000-0  84248-3 0  9993","LAUNCH_DATE":"2023-02-02","MEAN_ANOMALY":"106.2074"},{"CLASSIFICATION_TYPE":"U","PERIOD":"95.837","DECAY_DATE":null,"APOAPSIS":"560.031","MEAN_MOTION":"15.02548558","EPHEMERIS_TYPE":"0","OBJECT_ID":"2023-015AR","RA_OF_ASC_NODE":"40.3399","MEAN_ELEMENT_THEORY":"SGP4","OBJECT_NAME":"STARLINK-5706","TLE_LINE1":"1 55488U 23015AR  23093.31586727  .00004170  00000-0  32348-3 0  9992","LAUNCH_DATE":"2023-02-02","MEAN_ANOMALY":"93.6062","NORAD_CAT_ID":"55488","RCS_SIZE":"LARGE","EPOCH":"2023-04-03T07:34:50.932128","MEAN_MOTION_DOT":"0.00004170","GP_ID":"229393487","ARG_OF_PERICENTER":"266.4617","FILE":"3879059","CENTER_NAME":"EARTH","TLE_LINE2":"2 55488  43.0013  40.3399 0001425 266.4617  93.6062 15.02548558  9441","SEMIMAJOR_AXIS":"6937.178","OBJECT_TYPE":"PAYLOAD","ELEMENT_SET_NO":"999","PERIAPSIS":"558.054","SITE":"AFETR","MEAN_MOTION_DDOT":"0.0000000000000","REF_FRAME":"TEME","COUNTRY_CODE":"US","TIME_SYSTEM":"UTC","BSTAR":"0.00032348000000","INCLINATION":"43.0013","REV_AT_EPOCH":"944","ECCENTRICITY":"0.00014250"},{"ECCENTRICITY":"0.00017630","REV_AT_EPOCH":"944","INCLINATION":"43.0016","BSTAR":"0.00186310000000","TIME_SYSTEM":"UTC","COUNTRY_CODE":"US","REF_FRAME":"TEME","SITE":"AFETR","MEAN_MOTION_DDOT":"0.0000000000000","PERIAPSIS":"551.774","ELEMENT_SET_NO":"999","OBJECT_TYPE":"PAYLOAD","TLE_LINE2":"2 55489  43.0016  40.4895 0001763 270.6203  89.4438 15.04515305  9446","SEMIMAJOR_AXIS":"6931.131","CENTER_NAME":"EARTH","GP_ID":"229393737","FILE":"3879059","ARG_OF_PERICENTER":"270.6203","EPOCH":"2023-04-03T08:02:50.574912","MEAN_MOTION_DOT":"0.00026424","RCS_SIZE":"LARGE","NORAD_CAT_ID":"55489","LAUNCH_DATE":"2023-02-02","MEAN_ANOMALY":"89.4438","OBJECT_NAME":"STARLINK-5371","TLE_LINE1":"1 55489U 23015AS  23093.33530758  .00026424  00000-0  18631-2 0  9992","MEAN_ELEMENT_THEORY":"SGP4","OBJECT_ID":"2023-015AS","RA_OF_ASC_NODE":"40.4895","APOAPSIS":"554.218","EPHEMERIS_TYPE":"0","MEAN_MOTION":"15.04515305","DECAY_DATE":null,"CLASSIFICATION_TYPE":"U","PERIOD":"95.712"}];
